[{"OBJECT_NAME":"STARLINK-33804","OBJECT_ID":"2025-071U","EPOCH":"2026-03-09T11:23:12.766848","MEAN_MOTION":15.30183426,"ECCENTRICITY":0.00012634,"INCLINATION":53.1582,"RA_OF_ASC_NODE":141.1182,"ARG_OF_PERICENTER":58.6313,"MEAN_ANOMALY":301.4811,"EPHEMERIS_TYPE":0,"CLASSIFICATION_TYPE":"U","NORAD_CAT_ID":63511,"ELEMENT_SET_NO":999,"REV_AT_EPOCH":5236,"BSTAR":0.00084097169,"MEAN_MOTION_DOT":0.00024618,"MEAN_MOTION_DDOT":0},{"OBJECT_NAME":"COSMOS 2251 DEB","OBJECT_ID":"1993-036DE","EPOCH":"2026-03-09T20:53:28.838688","MEAN_MOTION":15.29467846,"ECCENTRICITY":0.00306247,"INCLINATION":73.7716,"RA_OF_ASC_NODE":223.0836,"ARG_OF_PERICENTER":342.1726,"MEAN_ANOMALY":17.8397,"EPHEMERIS_TYPE":0,"CLASSIFICATION_TYPE":"U","NORAD_CAT_ID":33901,"ELEMENT_SET_NO":999,"REV_AT_EPOCH":90839,"BSTAR":0.0037194515,"MEAN_MOTION_DOT":0.00109321,"MEAN_MOTION_DDOT":0}]
